{
	"type" : "FeatureCollection",
	"name" : "NSZ",
	"features" : [
		{
			"type" : "Feature",
			"geometry" : {
				"type" : "Polygon",
				"coordinates" : [
					[
						[ 103.84235542032137, 1.2996384818211608 ],
						[ 103.8426026698088, 1.299526018636274 ],
						[ 103.84280950367251, 1.2994255203262113 ],
						[ 103.84289746746109, 1.2993848425685286 ],
						[ 103.84308052661434, 1.2992604157385448 ],
						[ 103.8435060816454, 1.2989732782279655 ],
						[ 103.84363683840084, 1.298884743998821 ],
						[ 103.84370578263469, 1.2988368874430982 ],
						[ 103.84378423703221, 1.2987818529025417 ],
						[ 103.84398869311912, 1.2986526400188174 ],
						[ 103.84418364014408, 1.2985832481778 ],
						[ 103.8443001326995, 1.2985497481911197 ],
						[ 103.84446417252647, 1.2984923203050425 ],
						[ 103.84464723565021, 1.299090520623713 ],
						[ 103.8446662554865, 1.299167090391723 ],
						[ 103.84468289771054, 1.2992293024748682 ],
						[ 103.84470667182416, 1.2993226219612428 ],
						[ 103.84472806919209, 1.2993944058193752 ],
						[ 103.84478512700123, 1.2994422618312667 ],
						[ 103.84484931627013, 1.2994255117973692 ],
						[ 103.84489924204911, 1.299411154776823 ],
						[ 103.84496105464363, 1.2993896197569315 ],
						[ 103.84510845350468, 1.2993417627983792 ],
						[ 103.8453366835127, 1.2992651918640221 ],
						[ 103.84540800538734, 1.299241263838457 ],
						[ 103.84576937071381, 1.2991168359496261 ],
						[ 103.84579314478407, 1.2991934056852164 ],
						[ 103.84603802182251, 1.2999614941297617 ],
						[ 103.84588349087241, 1.300126598454858 ],
						[ 103.84574560234547, 1.3002079539877083 ],
						[ 103.8456742796531, 1.3002534176614202 ],
						[ 103.84545793667152, 1.3003826307386612 ],
						[ 103.84527012236472, 1.3004879141696462 ],
						[ 103.84544842982169, 1.3008970832103015 ],
						[ 103.84557833486448, 1.3008248202162398 ],
						[ 103.84573683522368, 1.3009405672760914 ],
						[ 103.84514457715929, 1.3017382605628485 ],
						[ 103.84490477071016, 1.301168472082158 ],
						[ 103.84457588421715, 1.300355465920166 ],
						[ 103.84438512106613, 1.2998905626759432 ],
						[ 103.84428712376726, 1.299638238094891 ],
						[ 103.84297600821334, 1.3000563548308282 ],
						[ 103.84311556433543, 1.3006269189391513 ],
						[ 103.84317864042762, 1.3008625590760907 ],
						[ 103.84319385579252, 1.300939128869374 ],
						[ 103.843014442416, 1.3011928445863186 ],
						[ 103.84290032750972, 1.301289035071264 ],
						[ 103.84285753435233, 1.3013076995145687 ],
						[ 103.84281046141153, 1.3013234917107854 ],
						[ 103.84266068483835, 1.3013708701347348 ],
						[ 103.84235827966604, 1.3014584481184905 ],
						[ 103.84212291671842, 1.301535975625807 ],
						[ 103.84149100262414, 1.3017355376081616 ],
						[ 103.84156803148134, 1.3020542581137229 ],
						[ 103.84155519328321, 1.3021231716563673 ],
						[ 103.84075068162869, 1.3028711643268247 ],
						[ 103.8406853091099, 1.3029741418233938 ],
						[ 103.84066931519413, 1.303044682322659 ],
						[ 103.84044719540523, 1.3033309144143224 ],
						[ 103.84041538702638, 1.3033868042474201 ],
						[ 103.84003318498986, 1.3033805281039004 ],
						[ 103.83998561188398, 1.303199240172778 ],
						[ 103.83982261574867, 1.3032517841940159 ],
						[ 103.839815247626, 1.3032345108459318 ],
						[ 103.83955628683674, 1.3033208783390624 ],
						[ 103.83952593397625, 1.3033329978066772 ],
						[ 103.83947028407239, 1.303232693037945 ],
						[ 103.83939753477809, 1.3031063534562077 ],
						[ 103.83936417693107, 1.3030133007319282 ],
						[ 103.83934420661865, 1.3029601802017288 ],
						[ 103.83933136902323, 1.3029314666508613 ],
						[ 103.83924578199694, 1.302710371371069 ],
						[ 103.83923437039968, 1.3026830939475373 ],
						[ 103.8392272376985, 1.3026644296840326 ],
						[ 103.83920869419953, 1.3025754176242221 ],
						[ 103.83915020908967, 1.3023342236738127 ],
						[ 103.83917445809954, 1.3019236184925296 ],
						[ 103.83917731090605, 1.3018905974145065 ],
						[ 103.83888203639872, 1.3019738674733514 ],
						[ 103.83882783164132, 1.301979610309193 ],
						[ 103.83787354157757, 1.3022724916601476 ],
						[ 103.83780507244215, 1.3023040767233838 ],
						[ 103.8377494408194, 1.3023299190457707 ],
						[ 103.8377137793645, 1.3023485833887898 ],
						[ 103.83774944099682, 1.3024318527135514 ],
						[ 103.83775799972636, 1.3024777944293922 ],
						[ 103.83776513157035, 1.3025266075058934 ],
						[ 103.83776227943163, 1.3029530046524984 ],
						[ 103.8377604894171, 1.3034041759644406 ],
						[ 103.83776227128749, 1.3034346548629498 ],
						[ 103.83776924866305, 1.303528447425772 ],
						[ 103.83776924879872, 1.3036059740960555 ],
						[ 103.83776996237641, 1.3036813474725004 ],
						[ 103.83777281538669, 1.3037531314213204 ],
						[ 103.83774625899615, 1.3038372835147714 ],
						[ 103.83772759532658, 1.303858659113383 ],
						[ 103.83765873443808, 1.3039240800766407 ],
						[ 103.83757765335642, 1.3040144190212932 ],
						[ 103.8373981168724, 1.304189932103669 ],
						[ 103.83712671128909, 1.3044473952319429 ],
						[ 103.83699576986982, 1.304572299958412 ],
						[ 103.83689306604035, 1.3046081925356474 ],
						[ 103.83679606788894, 1.3045780429592253 ],
						[ 103.83674328899107, 1.3045292299433866 ],
						[ 103.83669478986698, 1.3044761094312658 ],
						[ 103.8366605551681, 1.3044201184454598 ],
						[ 103.836646290698, 1.3043870973935674 ],
						[ 103.83663049960631, 1.3043607125722787 ],
						[ 103.83583739608851, 1.3047627045363877 ],
						[ 103.83580040912734, 1.3046771064478735 ],
						[ 103.83577758598514, 1.3046182431762388 ],
						[ 103.83576617442064, 1.3045952723222412 ],
						[ 103.83575761574465, 1.3045751728235642 ],
						[ 103.83561354432132, 1.3042937789565074 ],
						[ 103.83559072120995, 1.3042607588106832 ],
						[ 103.83543666442924, 1.304163132767868 ],
						[ 103.83542525288055, 1.3041530825717242 ],
						[ 103.83540528268145, 1.3041487760033013 ],
						[ 103.83532682878874, 1.3041459047089075 ],
						[ 103.83525407977653, 1.304154518840288 ],
						[ 103.83515850768927, 1.3041717470607677 ],
						[ 103.83513140573207, 1.3041746184385499 ],
						[ 103.83502156922998, 1.3042105100398131 ],
						[ 103.83492885003412, 1.3042435311715996 ],
						[ 103.83480332311333, 1.3042909082058263 ],
						[ 103.83471916253689, 1.304267937388676 ],
						[ 103.83469348656456, 1.304257888101427 ],
						[ 103.8346635317305, 1.3042794228514847 ],
						[ 103.83460647410818, 1.3044430912000056 ],
						[ 103.83455512129713, 1.3044947756722516 ],
						[ 103.83449093184889, 1.304550766734433 ],
						[ 103.83434400785133, 1.3046928994783826 ],
						[ 103.83422846557507, 1.3048163688267944 ],
						[ 103.83412576172145, 1.3049326584138292 ],
						[ 103.83391464731359, 1.3051594966687339 ],
						[ 103.83388326557203, 1.3051910816152703 ],
						[ 103.83385109491354, 1.3052617920943952 ],
						[ 103.83376408235816, 1.3054297661091252 ],
						[ 103.83372556795214, 1.3055029861998058 ],
						[ 103.83368705354891, 1.305612097814178 ],
						[ 103.83367136317315, 1.3060011681976094 ],
						[ 103.8336707800183, 1.3060179993302272 ],
						[ 103.83397902032664, 1.306017136505581 ],
						[ 103.83413670636499, 1.3060164355771502 ],
						[ 103.83425850089608, 1.3061798479163536 ],
						[ 103.83431219181544, 1.3062530309008207 ],
						[ 103.83434627013598, 1.3062987944570497 ],
						[ 103.83440813425182, 1.3063847642493465 ],
						[ 103.83447961283204, 1.3064795606356703 ],
						[ 103.83454113546857, 1.306481226446547 ],
						[ 103.83461387556997, 1.306483196116738 ],
						[ 103.83502736728188, 1.3064943919061005 ],
						[ 103.83499061680972, 1.3066668542895392 ],
						[ 103.8349955588355, 1.3066900060239626 ],
						[ 103.83509713872941, 1.3067053032840732 ],
						[ 103.83549937443581, 1.3067857778650556 ],
						[ 103.83585839266752, 1.30680249471016 ],
						[ 103.83583813592796, 1.306917132006592 ],
						[ 103.83582101868633, 1.3070061441244019 ],
						[ 103.8358110340941, 1.3070750567283744 ],
						[ 103.83580532835386, 1.307112384389122 ],
						[ 103.83580104860418, 1.3071454054634946 ],
						[ 103.83579391687424, 1.3071884758417684 ],
						[ 103.83576846292219, 1.3072956611768785 ],
						[ 103.8357530438951, 1.3073475789634 ],
						[ 103.83582428976375, 1.3073760564348662 ],
						[ 103.83586256791105, 1.3073944150007553 ],
						[ 103.8359021938915, 1.307423716378121 ],
						[ 103.8359257359077, 1.3074899158533309 ],
						[ 103.83593829227745, 1.307552634439864 ],
						[ 103.83596086932894, 1.3076894186797874 ],
						[ 103.83588943476659, 1.307672507133251 ],
						[ 103.83588967387197, 1.3077631326198607 ],
						[ 103.83591616594974, 1.3079529108212544 ],
						[ 103.83593134069638, 1.308021790841874 ],
						[ 103.83594967927917, 1.3081372447389599 ],
						[ 103.8360075738511, 1.3083566589382303 ],
						[ 103.83605618549875, 1.3085441336963841 ],
						[ 103.83587746793715, 1.3085937093515083 ],
						[ 103.83594083291634, 1.3088536978699037 ],
						[ 103.83549037012787, 1.3089325589056422 ],
						[ 103.83545552713788, 1.3089478426996235 ],
						[ 103.83547897929168, 1.3090021045637859 ],
						[ 103.83548221411397, 1.3090593508488504 ],
						[ 103.83545912145918, 1.3091004994641753 ],
						[ 103.835409544093, 1.3091406460653554 ],
						[ 103.83522574793676, 1.3092638279236726 ],
						[ 103.8348521523553, 1.3094880201971912 ],
						[ 103.83472285126946, 1.3095352281117811 ],
						[ 103.83432809836323, 1.3097151968826113 ],
						[ 103.83430466692664, 1.309745402673923 ],
						[ 103.83414344668725, 1.3098170284183654 ],
						[ 103.8340968326713, 1.309765570079839 ],
						[ 103.8340236961791, 1.3096291358288752 ],
						[ 103.83399729950884, 1.3095795902141312 ],
						[ 103.83395665365278, 1.3095042313200895 ],
						[ 103.83363712887676, 1.3089098593613422 ],
						[ 103.83322203195979, 1.3090979337813458 ],
						[ 103.83214221036091, 1.3095975507014344 ],
						[ 103.83201097766, 1.3090333274248604 ],
						[ 103.83189971519842, 1.308555245796406 ],
						[ 103.83189258254203, 1.3085236608537176 ],
						[ 103.83186120083388, 1.308382963386357 ],
						[ 103.83180842291009, 1.3082350888668532 ],
						[ 103.83173852678853, 1.3080369642125234 ],
						[ 103.83159730852182, 1.3077297279006779 ],
						[ 103.83142328257534, 1.3073464010183378 ],
						[ 103.83137478355113, 1.3072387246005488 ],
						[ 103.83131487299447, 1.3071095134390782 ],
						[ 103.83118791923233, 1.3068482197472406 ],
						[ 103.83108378856583, 1.3066242528199898 ],
						[ 103.83100842306531, 1.3064509059234481 ],
						[ 103.83094490741851, 1.30648679467445 ],
						[ 103.83065728217595, 1.3058719547675932 ],
						[ 103.82969959017854, 1.3063857756295105 ],
						[ 103.83025276942705, 1.3076145982572618 ],
						[ 103.82961597269988, 1.3079249789874978 ],
						[ 103.82952896002665, 1.307923542725073 ],
						[ 103.82947047535703, 1.3079163646922047 ],
						[ 103.82944051958314, 1.3079077505714445 ],
						[ 103.8293920204872, 1.307893393704968 ],
						[ 103.82936206561915, 1.3078804720939927 ],
						[ 103.82933496275805, 1.3078575011861973 ],
						[ 103.82931784546358, 1.3078316589361383 ],
						[ 103.82930358106096, 1.3078043814637192 ],
						[ 103.82922655330698, 1.3076478918713819 ],
						[ 103.8281904682249, 1.3082142194304602 ],
						[ 103.82786238648762, 1.3075346627865971 ],
						[ 103.8277411396728, 1.307302560923422 ],
						[ 103.82772212022734, 1.307252311662344 ],
						[ 103.82768170455738, 1.3072068482509744 ],
						[ 103.82756283419803, 1.3070776368657384 ],
						[ 103.82745585054063, 1.307032173295869 ],
						[ 103.8273108287562, 1.3069532101509382 ],
						[ 103.8272276197989, 1.306898175736412 ],
						[ 103.82621008949178, 1.3062234020832049 ],
						[ 103.82552301855989, 1.305771160678326 ],
						[ 103.82545169652195, 1.305728090082971 ],
						[ 103.82526863679922, 1.3056132351751035 ],
						[ 103.82516403080841, 1.305565378565605 ],
						[ 103.82482643911332, 1.3054194165852793 ],
						[ 103.82473847509371, 1.3053811309067846 ],
						[ 103.82461960469071, 1.3053332742254318 ],
						[ 103.82420831295128, 1.3052973812334818 ],
						[ 103.82377800172769, 1.3052495233555916 ],
						[ 103.823545015891, 1.3052040591334724 ],
						[ 103.82326923600482, 1.3051250961429566 ],
						[ 103.82318364951662, 1.3051011672098969 ],
						[ 103.82292213500152, 1.305017418340813 ],
						[ 103.82296017335864, 1.3049743481276523 ],
						[ 103.82323595465924, 1.3046919984414567 ],
						[ 103.82344041298794, 1.304378541912384 ],
						[ 103.82354739661538, 1.3041512257293641 ],
						[ 103.82357830331458, 1.3040746559989607 ],
						[ 103.82359494546796, 1.3040291927429335 ],
						[ 103.82362585227419, 1.3039239103350377 ],
						[ 103.82362525966185, 1.30357751149767 ],
						[ 103.82358246727945, 1.3033478026810545 ],
						[ 103.8235201646682, 1.3031451994077299 ],
						[ 103.82350875332538, 1.303095428552383 ],
						[ 103.82351542534818, 1.3030132887441914 ],
						[ 103.82352826297576, 1.3029874456668986 ],
						[ 103.82355013551864, 1.3029525110458404 ],
						[ 103.82360719343113, 1.3028902982069945 ],
						[ 103.82371940777563, 1.3028051156184077 ],
						[ 103.82385206753445, 1.3027448166988422 ],
						[ 103.82389200795636, 1.3027304600590257 ],
						[ 103.82403037328092, 1.3027228042247674 ],
						[ 103.82406841143602, 1.3027204114166169 ],
						[ 103.82429188772522, 1.3027706614533394 ],
						[ 103.82440838049986, 1.3028041604467924 ],
						[ 103.82437033952539, 1.3033497192624772 ],
						[ 103.82435607446915, 1.3035291795469564 ],
						[ 103.82431221542949, 1.304061750755213 ],
						[ 103.82439067026553, 1.3040473942463204 ],
						[ 103.82447150169742, 1.3040497874831523 ],
						[ 103.82477818803058, 1.3040928589227119 ],
						[ 103.82494222824621, 1.3041598575331506 ],
						[ 103.82500641838924, 1.304226856706775 ],
						[ 103.82516332655493, 1.3043871748700706 ],
						[ 103.82528932946522, 1.3044733160221205 ],
						[ 103.82553420178657, 1.3046336344434908 ],
						[ 103.82560552377329, 1.3046838838841603 ],
						[ 103.82578382931949, 1.304770025172394 ],
						[ 103.82656599597551, 1.30520791088102 ],
						[ 103.82702959071435, 1.3054591563800997 ],
						[ 103.82725544376069, 1.3055931539527503 ],
						[ 103.82776420944126, 1.3058707200567845 ],
						[ 103.8278121030723, 1.3057916045254718 ],
						[ 103.82805102750795, 1.3054217198558773 ],
						[ 103.82790159932713, 1.3053407788895117 ],
						[ 103.82806657303175, 1.3051035643657598 ],
						[ 103.8280895760391, 1.3050027277430991 ],
						[ 103.82829309679715, 1.3050469515986831 ],
						[ 103.82818158766561, 1.3047883934853994 ],
						[ 103.82818614632491, 1.3046250995840523 ],
						[ 103.82828592899348, 1.3046442370502862 ],
						[ 103.82837151553423, 1.3046585940122566 ],
						[ 103.82849276360972, 1.3046657730974496 ],
						[ 103.82886363874061, 1.3046681667371463 ],
						[ 103.8289206973565, 1.3046657738893273 ],
						[ 103.82909900232474, 1.3046274888196188 ],
						[ 103.82917745715193, 1.3046131321605752 ],
						[ 103.82938191429743, 1.3045844189106814 ],
						[ 103.82943184026621, 1.3045700621983947 ],
						[ 103.82951504930358, 1.3045533125869777 ],
						[ 103.82957448458278, 1.304543741784691 ],
						[ 103.82974090362262, 1.3044599942342943 ],
						[ 103.82989543487075, 1.304383424599598 ],
						[ 103.8301022696324, 1.3042853193851236 ],
						[ 103.83016170493009, 1.3042542129305525 ],
						[ 103.83035189769994, 1.3041489306352947 ],
						[ 103.83052833460944, 1.304040976816524 ],
						[ 103.83072277386087, 1.3039527209731645 ],
						[ 103.83085115464834, 1.3038809371499278 ],
						[ 103.83135754237706, 1.3035842299881426 ],
						[ 103.83148592224336, 1.3034933034428235 ],
						[ 103.83158101903676, 1.3034215195570082 ],
						[ 103.831768834169, 1.303256416134426 ],
						[ 103.83211593640436, 1.3029621016619801 ],
						[ 103.8321658613942, 1.303019528849358 ],
						[ 103.8322348068019, 1.303096098733442 ],
						[ 103.83227760003943, 1.3031463470677713 ],
						[ 103.83232514748822, 1.3031918104092204 ],
						[ 103.83263896552963, 1.3035483382425612 ],
						[ 103.83277447797657, 1.3036009804457993 ],
						[ 103.83287908404496, 1.303572265980943 ],
						[ 103.83307165420854, 1.303426305150847 ],
						[ 103.83353524831679, 1.302990815531643 ],
						[ 103.83458843997576, 1.3020169436763622 ],
						[ 103.83492365397983, 1.3017609141968194 ],
						[ 103.83528264258427, 1.3015718818060786 ],
						[ 103.83545619300072, 1.301492919766437 ],
						[ 103.83511860090154, 1.3008492555704967 ],
						[ 103.83500448550349, 1.3006315108325877 ],
						[ 103.83492603072726, 1.3004783711748569 ],
						[ 103.8349046336442, 1.3004353008147924 ],
						[ 103.8350496560965, 1.300373087656469 ],
						[ 103.83547521142668, 1.3002031987840488 ],
						[ 103.8357034418068, 1.3001266287242257 ],
						[ 103.83582468963755, 1.3000835582331023 ],
						[ 103.83593642727587, 1.3000524515879566 ],
						[ 103.83623598054763, 1.2999854522973469 ],
						[ 103.836737612912, 1.2998705973371059 ],
						[ 103.83693493781826, 1.299827526687961 ],
						[ 103.83704667543513, 1.2997988129426408 ],
						[ 103.83737951163825, 1.2997246355226404 ],
						[ 103.83754875071855, 1.29969017804075 ],
						[ 103.83775293235112, 1.2996230647775069 ],
						[ 103.83809811991674, 1.2995536206858502 ],
						[ 103.83914282428977, 1.2993434468183989 ],
						[ 103.83933713989671, 1.299304354288252 ],
						[ 103.8396138556043, 1.2992486845314695 ],
						[ 103.83972381536452, 1.2993869173183477 ],
						[ 103.83981664432443, 1.2995036136011446 ],
						[ 103.83996166813853, 1.2996859268354328 ],
						[ 103.8400127263238, 1.2997501121829238 ],
						[ 103.8400394113993, 1.2997836586195868 ],
						[ 103.84012777550325, 1.2998947433187213 ],
						[ 103.84025155948449, 1.3000513319362712 ],
						[ 103.84024904093742, 1.300078764040562 ],
						[ 103.84033224975569, 1.3000620140694559 ],
						[ 103.84049866827397, 1.3000237291248409 ],
						[ 103.84056999024364, 1.3000093721290278 ],
						[ 103.84086478830015, 1.299947158198508 ],
						[ 103.84099554537144, 1.2999160512711512 ],
						[ 103.84105260294106, 1.2999040872544045 ],
						[ 103.84110966051747, 1.299894515281246 ],
						[ 103.84214620869817, 1.299688730881183 ],
						[ 103.84235542032137, 1.2996384818211608 ]
					]
				]
			},
			"properties" : {
				"OBJECTID" : 1281,
				"NAME" : "NSZ Orchard",
				"NSZ_AREA" : 827880,
				"INC_CRC" : "1945EEE8BF6D0844",
				"FMEL_UPD_D" : "20240201101229",
				"SHAPE.AREA" : 852725.844796975,
				"SHAPE.LEN" : 9101.29301048921
			}
		}
	]
}